NORAD_CAT_ID,OBJECT_NAME,OBJECT_TYPE,EPOCH,MEAN_MOTION,ECCENTRICITY,INCLINATION,RA_OF_ASC_NODE,ARG_OF_PERICENTER,MEAN_ANOMALY,BSTAR,MEAN_MOTION_DOT,MEAN_MOTION_DDOT,TLE_LINE0,TLE_LINE1,TLE_LINE2,SEMIMAJOR_AXIS,PERIOD,APOGEE,PERIGEE,DECAYED
52343.0,STARLINK-3849,PAYLOAD,2022-07-14 22:00:00,15.08825902,0.0001847,53.2175,76.645,48.2855,302.5013,-0.0006829,-0.00011136,0.0,0 STARLINK-3849,1 52343U 22045N   22195.91667824 -.00011136  00000-0 -68290-3 0  9994,2 52343  53.2175  76.6450 0001847  48.2855 302.5013 15.08825902  1300,6917.9230000000025,95.438,541.066,538.511,0.0
52343.0,STARLINK-3849,PAYLOAD,2022-07-15 06:00:00,15.08839334,0.0001857,53.2171,75.1485,45.8439,316.5111,-0.00081133,-0.00013177,0.0,0 STARLINK-3849,1 52343U 22045N   22196.25001157 -.00013177  00000-0 -81133-3 0  9991,2 52343  53.2171  75.1485 0001857  45.8439 316.5111 15.08839334 14346,6917.882,95.438,541.0319999999998,538.4630000000002,0.0
52343.0,STARLINK-3849,PAYLOAD,2022-07-15 14:00:01,15.08816818,0.0001740999999999,53.2171,73.6506,53.0922,320.8587,0.0034538,0.00055074,0.0,0 STARLINK-3849,1 52343U 22045N   22196.58334491  .00055074  00000-0  34538-2 0  9993,2 52343  53.2171  73.6506 0001741  53.0922 320.8587 15.08816818  1302,6917.951,95.439,541.021,538.612,0.0
52343.0,STARLINK-3849,PAYLOAD,2022-07-15 22:00:00,15.08852795,0.0001915,53.2172,72.1558,49.0638,336.4766,-0.00057568,-9.442e-05,0.0,0 STARLINK-3849,1 52343U 22045N   22196.91667824 -.00009442  00000-0 -57568-3 0  9998,2 52343  53.2172  72.1558 0001915  49.0638 336.4766 15.08852795 14441,6917.840999999999,95.437,541.031,538.382,0.0
52343.0,STARLINK-3849,PAYLOAD,2022-07-16 14:00:01,15.08824072,0.000171,53.2172,69.161,51.0817,357.6873,0.0033583,0.00053542,0.0,0 STARLINK-3849,1 52343U 22045N   22197.58334491  .00053542  00000-0  33583-2 0  9991,2 52343  53.2172  69.1610 0001710  51.0817 357.6873 15.08824072  1303,6917.929,95.439,540.977,538.611,0.0
52343.0,STARLINK-3849,PAYLOAD,2022-07-16 22:00:00,15.08873035,0.0001882,53.2173,67.6663,46.4174,13.9491,-0.0031105,-0.00049497,0.0,0 STARLINK-3849,1 52343U 22045N   22197.91667824 -.00049497  00000-0 -31105-2 0  9991,2 52343  53.2173  67.6663 0001882  46.4174  13.9491 15.08873035 14595,6917.779,95.435,540.946,538.342,0.0
52343.0,STARLINK-3849,PAYLOAD,2022-07-17 14:00:01,15.08807142,0.0001798,53.2177,64.6715,52.03,31.5456,0.0029151,0.0004637,0.0,0 STARLINK-3849,1 52343U 22045N   22198.58334491  .00046370  00000-0  29151-2 0  9999,2 52343  53.2177  64.6715 0001798  52.0300  31.5456 15.08807142 14698,6917.981,95.44,541.09,538.602,0.0
52343.0,STARLINK-3849,PAYLOAD,2022-07-17 22:00:00,15.08866604,0.0001944,53.2178,63.181,48.1755,46.9675,-0.0053629,-0.000847,0.0,0 STARLINK-3849,1 52343U 22045N   22198.91667824 -.00084700  00000-0 -53629-2 0  9993,2 52343  53.2178  63.1810 0001944  48.1755  46.9675 15.08866604  1307,6917.799,95.436,541.009,538.319,0.0
52343.0,STARLINK-3849,PAYLOAD,2022-07-18 06:00:00,15.08862193,0.0001909,53.218,61.6799,45.9676,60.7609,-0.0041477,-0.00065738,0.0,0 STARLINK-3849,1 52343U 22045N   22199.25001157 -.00065738  00000-0 -41477-2 0  9990,2 52343  53.2180  61.6799 0001909  45.9676  60.7609 15.08862193 14794,6917.813,95.436,540.998,538.357,0.0
52343.0,STARLINK-3849,PAYLOAD,2022-07-18 14:00:01,15.08812163,0.0001767,53.2184,60.1823,51.1084,67.2153,0.0023748,0.00037681,0.0,0 STARLINK-3849,1 52343U 22045N   22199.58334491  .00037681  00000-0  23748-2 0  9991,2 52343  53.2184  60.1823 0001767  51.1084  67.2153 15.08812163  1305,6917.965,95.439,541.053,538.6080000000002,0.0
52343.0,STARLINK-3849,PAYLOAD,2022-07-18 22:00:00,15.088312699999998,0.0001939,53.2185,58.688,46.0685,83.8342,0.00025054,3.701e-05,0.0,0 STARLINK-3849,1 52343U 22045N   22199.91667824  .00003701  00000-0  25054-3 0  9996,2 52343  53.2185  58.6880 0001939  46.0685  83.8342 15.08831270 14894,6917.906999999997,95.438,541.113,538.431,0.0
52343.0,STARLINK-3849,PAYLOAD,2022-07-19 14:00:01,15.088204,0.0001675999999999,53.2189,55.6933,49.9427,103.1468,0.002085,0.00033033,0.0,0 STARLINK-3849,1 52343U 22045N   22200.58334491  .00033033  00000-0  20850-2 0  9992,2 52343  53.2189  55.6933 0001676  49.9427 103.1468 15.08820400  1308,6917.94,95.439,540.965,538.646,0.0
52343.0,STARLINK-3849,PAYLOAD,2022-07-19 22:00:00,15.08831358,0.0001842,53.2186,54.2028,45.3894,119.275,8.7364e-05,1.102e-05,0.0,0 STARLINK-3849,1 52343U 22045N   22200.91667824  .00001102  00000-0  87364-4 0  9995,2 52343  53.2186  54.2028 0001842  45.3894 119.2750 15.08831358  1304,6917.906999999997,95.438,541.0459999999998,538.498,0.0
52343.0,STARLINK-3849,PAYLOAD,2022-07-20 06:00:00,15.08880205,0.0001803,53.2186,52.7016,46.1358,130.1423,-0.0040613,-0.00064418,0.0,0 STARLINK-3849,1 52343U 22045N   22201.25001157 -.00064418  00000-0 -40613-2 0  9999,2 52343  53.2186  52.7016 0001803  46.1358 130.1423 15.08880205 15090,6917.7580000000025,95.435,540.87,538.375,0.0
52343.0,STARLINK-3849,PAYLOAD,2022-07-20 14:00:01,15.08790605,0.0001724,53.2178,51.21100000000001,46.5398,141.341,0.0039033,0.00062298,0.0,0 STARLINK-3849,1 52343U 22045N   22201.58334491  .00062298  00000-0  39033-2 0  9991,2 52343  53.2178  51.2110 0001724  46.5398 141.3410 15.08790605  1303,6918.031,95.441,541.089,538.7040000000002,0.0
52343.0,STARLINK-3849,PAYLOAD,2022-07-20 22:00:01,15.08822579,0.0001706,53.2188,49.71,39.9119,159.6359,7.314100000000001e-05,8.76e-06,0.0,0 STARLINK-3849,1 52343U 22045N   22201.91668981  .00000876  00000-0  73141-4 0  9996,2 52343  53.2188  49.7100 0001706  39.9119 159.6359 15.08822579  1302,6917.934,95.439,540.979,538.618,0.0
52343.0,STARLINK-3849,PAYLOAD,2022-07-21 14:00:01,15.08843417,0.0001535,53.2187,46.716,48.4561,174.2389,-0.0007687999999999,-0.00012504,0.0,0 STARLINK-3849,1 52343U 22045N   22202.58335648 -.00012504  00000-0 -76880-3 0  9996,2 52343  53.2187  46.7160 0001535  48.4561 174.2389 15.08843417  1300,6917.87,95.437,540.797,538.673,0.0
52343.0,STARLINK-3849,PAYLOAD,2022-07-21 22:00:00,15.08806569,0.000179,53.2185,45.2215,43.4339,190.7978,0.00078927,0.00012284,0.0,0 STARLINK-3849,1 52343U 22045N   22202.91667824  .00012284  00000-0  78927-3 0  9994,2 52343  53.2185  45.2215 0001790  43.4339 190.7978 15.08806569  1308,6917.983,95.44,541.086,538.609,0.0
52343.0,STARLINK-3849,PAYLOAD,2022-07-22 06:00:00,15.08831332,0.0001676999999999,53.2182,43.724,45.2672,200.5222,-0.0015874,-0.00025457,0.0,0 STARLINK-3849,1 52343U 22045N   22203.25001157 -.00025457  00000-0 -15874-2 0  9992,2 52343  53.2182  43.7240 0001677  45.2672 200.5222 15.08831332 15404,6917.906999999997,95.438,540.932,538.612,0.0
52343.0,STARLINK-3849,PAYLOAD,2022-07-22 12:00:00,15.0881592,0.0001610999999999,53.2182,42.6011,50.0715,114.4113,0.0025285,0.00040156,0.0,0 STARLINK-3849,1 52343U 22045N   22203.50001157  .00040156  00000-0  25285-2 0  9998,2 52343  53.2182  42.6011 0001611  50.0715 114.4113 15.08815920 15438,6917.954000000002,95.439,540.933,538.705,0.0
52343.0,STARLINK-3849,PAYLOAD,2022-07-22 22:00:00,15.08826592,0.000184,53.2182,40.7328,44.25100000000001,224.7216,0.0021189,0.00033583,0.0,0 STARLINK-3849,1 52343U 22045N   22203.91667824  .00033583  00000-0  21189-2 0  9997,2 52343  53.2182  40.7328 0001840  44.2510 224.7216 15.08826592  1307,6917.920999999999,95.438,541.059,538.513,0.0
52343.0,STARLINK-3849,PAYLOAD,2022-07-23 08:00:01,15.08853441,0.0001612,53.2181,38.8615,46.0615,327.4098,-0.0010733,-0.00017335,0.0,0 STARLINK-3849,1 52343U 22045N   22204.33334491 -.00017335  00000-0 -10733-2 0  9997,2 52343  53.2181  38.8615 0001612  46.0615 327.4098 15.08853441 15561,6917.839,95.437,540.819,538.589,0.0
52343.0,STARLINK-3849,PAYLOAD,2022-07-23 14:00:01,15.08841849,0.0001631999999999,53.2182,37.7384,48.694,243.5329,-0.00047553,-7.849e-05,0.0,0 STARLINK-3849,1 52343U 22045N   22204.58335648 -.00007849  00000-0 -47553-3 0  9999,2 52343  53.2182  37.7384 0001632  48.6940 243.5329 15.08841849  1305,6917.875,95.437,540.869,538.611,0.0
52343.0,STARLINK-3849,PAYLOAD,2022-07-23 22:00:00,15.08818233,0.0001834,53.2182,36.2438,42.0794,261.6816,0.0025136,0.00039919,0.0,0 STARLINK-3849,1 52343U 22045N   22204.91667824  .00039919  00000-0  25136-2 0  9993,2 52343  53.2182  36.2438 0001834  42.0794 261.6816 15.08818233  1301,6917.946999999999,95.439,541.081,538.543,0.0
52343.0,STARLINK-3849,PAYLOAD,2022-07-24 14:00:01,15.08866157,0.0001664,53.2184,33.2495,47.0331,279.897,-0.0025414,-0.00040536,0.0,0 STARLINK-3849,1 52343U 22045N   22205.58334491 -.00040536  00000-0 -25414-2 0  9996,2 52343  53.2184  33.2495 0001664  47.0331 279.8970 15.08866157  1306,6917.8,95.436,540.817,538.514,0.0
52343.0,STARLINK-3849,PAYLOAD,2022-07-24 22:00:00,15.0880736,0.0001838,53.2184,31.7548,40.0712,298.478,0.0025859999999999,0.00041072,0.0,0 STARLINK-3849,1 52343U 22045N   22205.91667824  .00041072  00000-0  25860-2 0  9991,2 52343  53.2184  31.7548 0001838  40.0712 298.4780 15.08807360  1304,6917.98,95.44,541.117,538.5740000000002,0.0
52343.0,STARLINK-3849,PAYLOAD,2022-07-25 06:00:00,15.08835092,0.0001704,53.2185,30.2569,42.1008,308.021,-0.00051812,-8.523e-05,0.0,0 STARLINK-3849,1 52343U 22045N   22206.25001157 -.00008523  00000-0 -51812-3 0  9993,2 52343  53.2185  30.2569 0001704  42.1008 308.0210 15.08835092 15859,6917.895,95.438,540.939,538.582,0.0
52343.0,STARLINK-3849,PAYLOAD,2022-07-25 14:00:01,15.08849154,0.0001701,53.2187,28.7605,45.6706,316.0302,-0.00053928,-8.863e-05,0.0,0 STARLINK-3849,1 52343U 22045N   22206.58334491 -.00008863  00000-0 -53928-3 0  9996,2 52343  53.2187  28.7605 0001701  45.6706 316.0302 15.08849154  1304,6917.852,95.437,540.894,538.5409999999998,0.0
52343.0,STARLINK-3849,PAYLOAD,2022-07-25 22:00:00,15.0882189,0.0001896999999999,53.2188,27.2657,40.7573,332.5504,0.0027101,0.00043086,0.0,0 STARLINK-3849,1 52343U 22045N   22206.91667824  .00043086  00000-0  27101-2 0  9999,2 52343  53.2188  27.2657 0001897  40.7573 332.5504 15.08821890  1304,6917.936,95.439,541.113,538.488,0.0
